{
  "type": "FeatureCollection",
  "features": [
    {
      "type": "Feature",
      "properties": {
        "norad_id": 36058,
        "name": "COSMOS 2251 DEB",
        "group": "cosmos-2251-debris",
        "lat": 44.51469207123942,
        "lon": 64.92282000317387,
        "alt_km": 717.1339901323272,
        "timestamp": "2025-12-04T19:33:59.996126+00:00",
        "meta_object_name": "COSMOS 2251 DEB",
        "meta_object_id": "1993-036AXV",
        "meta_epoch": "2025-12-02T21:15:38.245248",
        "meta_mean_motion": 14.58601869,
        "meta_eccentricity": 0.00452241,
        "meta_inclination": 74.0244,
        "meta_ra_of_asc_node": 52.2381,
        "meta_arg_of_pericenter": 188.8228,
        "meta_mean_anomaly": 171.2148,
        "meta_ephemeris_type": 0,
        "meta_classification_type": "U",
        "meta_norad_cat_id": 36058,
        "meta_element_set_no": 999,
        "meta_rev_at_epoch": 65967,
        "meta_bstar": 0.00090546257,
        "meta_mean_motion_dot": 4.247e-05,
        "meta_mean_motion_ddot": 0,
        "tle_line1": "1 36058U 93036AXV 25336.88585932  .00004247  00000+0  90546-3 0  9993",
        "tle_line2": "2 36058  74.0244  52.2381 0045224 188.8228 171.2148 14.58601869659675"
      },
      "geometry": {
        "type": "Point",
        "coordinates": [
          64.92282000317387,
          44.51469207123942
        ]
      }
    },
    {
      "type": "Feature",
      "properties": {
        "norad_id": 36060,
        "name": "COSMOS 2251 DEB",
        "group": "cosmos-2251-debris",
        "lat": 60.89384214478389,
        "lon": -79.78196836286178,
        "alt_km": 743.5545925930192,
        "timestamp": "2025-12-04T19:33:59.996135+00:00",
        "meta_object_name": "COSMOS 2251 DEB",
        "meta_object_id": "1993-036AXX",
        "meta_epoch": "2025-12-04T02:36:53.095968",
        "meta_mean_motion": 14.41968213,
        "meta_eccentricity": 0.00149828,
        "meta_inclination": 74.0291,
        "meta_ra_of_asc_node": 250.5702,
        "meta_arg_of_pericenter": 348.4876,
        "meta_mean_anomaly": 11.5935,
        "meta_ephemeris_type": 0,
        "meta_classification_type": "U",
        "meta_norad_cat_id": 36060,
        "meta_element_set_no": 999,
        "meta_rev_at_epoch": 84885,
        "meta_bstar": 0.00063718489,
        "meta_mean_motion_dot": 2.066e-05,
        "meta_mean_motion_ddot": 0,
        "tle_line1": "1 36060U 93036AXX 25338.10894787  .00002066  00000+0  63718-3 0  9992",
        "tle_line2": "2 36060  74.0291 250.5702 0014982 348.4876  11.5935 14.41968213848851"
      },
      "geometry": {
        "type": "Point",
        "coordinates": [
          -79.78196836286178,
          60.89384214478389
        ]
      }
    },
    {
      "type": "Feature",
      "properties": {
        "norad_id": 36061,
        "name": "COSMOS 2251 DEB",
        "group": "cosmos-2251-debris",
        "lat": 53.6540500210688,
        "lon": 171.3535553503086,
        "alt_km": 748.8907373676384,
        "timestamp": "2025-12-04T19:33:59.996144+00:00",
        "meta_object_name": "COSMOS 2251 DEB",
        "meta_object_id": "1993-036AXY",
        "meta_epoch": "2025-12-03T19:33:06.948864",
        "meta_mean_motion": 14.33686991,
        "meta_eccentricity": 0.0036926,
        "meta_inclination": 74.0246,
        "meta_ra_of_asc_node": 16.0964,
        "meta_arg_of_pericenter": 106.9115,
        "meta_mean_anomaly": 253.609,
        "meta_ephemeris_type": 0,
        "meta_classification_type": "U",
        "meta_norad_cat_id": 36061,
        "meta_element_set_no": 999,
        "meta_rev_at_epoch": 64976,
        "meta_bstar": 0.00048994,
        "meta_mean_motion_dot": 1.344e-05,
        "meta_mean_motion_ddot": 0,
        "tle_line1": "1 36061U 93036AXY 25337.81466376  .00001344  00000+0  48994-3 0  9996",
        "tle_line2": "2 36061  74.0246  16.0964 0036926 106.9115 253.6090 14.33686991649763"
      },
      "geometry": {
        "type": "Point",
        "coordinates": [
          171.3535553503086,
          53.6540500210688
        ]
      }
    },
    {
      "type": "Feature",
      "properties": {
        "norad_id": 36073,
        "name": "COSMOS 2251 DEB",
        "group": "cosmos-2251-debris",
        "lat": -3.9695306107663844,
        "lon": 158.22590230168913,
        "alt_km": 790.5118075007686,
        "timestamp": "2025-12-04T19:33:59.996153+00:00",
        "meta_object_name": "COSMOS 2251 DEB",
        "meta_object_id": "1993-036AYL",
        "meta_epoch": "2025-12-02T18:11:25.029312",
        "meta_mean_motion": 14.34931351,
        "meta_eccentricity": 0.00234518,
        "meta_inclination": 74.0318,
        "meta_ra_of_asc_node": 340.8572,
        "meta_arg_of_pericenter": 51.9571,
        "meta_mean_anomaly": 308.3693,
        "meta_ephemeris_type": 0,
        "meta_classification_type": "U",
        "meta_norad_cat_id": 36073,
        "meta_element_set_no": 999,
        "meta_rev_at_epoch": 70064,
        "meta_bstar": 0.00029028111,
        "meta_mean_motion_dot": 8.02e-06,
        "meta_mean_motion_ddot": 0,
        "tle_line1": "1 36073U 93036AYL 25336.75792858  .00000802  00000+0  29028-3 0  9993",
        "tle_line2": "2 36073  74.0318 340.8572 0023451  51.9571 308.3693 14.34931351700649"
      },
      "geometry": {
        "type": "Point",
        "coordinates": [
          158.22590230168913,
          -3.9695306107663844
        ]
      }
    },
    {
      "type": "Feature",
      "properties": {
        "norad_id": 36074,
        "name": "COSMOS 2251 DEB",
        "group": "cosmos-2251-debris",
        "lat": 65.34729911223133,
        "lon": 33.97531930632425,
        "alt_km": 711.1657340878801,
        "timestamp": "2025-12-04T19:33:59.996162+00:00",
        "meta_object_name": "COSMOS 2251 DEB",
        "meta_object_id": "1993-036AYM",
        "meta_epoch": "2025-12-03T11:38:27.519072",
        "meta_mean_motion": 14.43635924,
        "meta_eccentricity": 0.00422946,
        "meta_inclination": 73.9916,
        "meta_ra_of_asc_node": 357.7317,
        "meta_arg_of_pericenter": 92.4077,
        "meta_mean_anomaly": 268.1923,
        "meta_ephemeris_type": 0,
        "meta_classification_type": "U",
        "meta_norad_cat_id": 36074,
        "meta_element_set_no": 999,
        "meta_rev_at_epoch": 85776,
        "meta_bstar": 0.0012216694,
        "meta_mean_motion_dot": 4.165e-05,
        "meta_mean_motion_ddot": 0,
        "tle_line1": "1 36074U 93036AYM 25337.48504073  .00004165  00000+0  12217-2 0  9992",
        "tle_line2": "2 36074  73.9916 357.7317 0042294  92.4077 268.1923 14.43635924857765"
      },
      "geometry": {
        "type": "Point",
        "coordinates": [
          33.97531930632425,
          65.34729911223133
        ]
      }
    },
    {
      "type": "Feature",
      "properties": {
        "norad_id": 36366,
        "name": "COSMOS 2251 DEB",
        "group": "cosmos-2251-debris",
        "lat": -55.20661312575988,
        "lon": -96.74837510122157,
        "alt_km": 724.8030001675434,
        "timestamp": "2025-12-04T19:33:59.996171+00:00",
        "meta_object_name": "COSMOS 2251 DEB",
        "meta_object_id": "1993-036AYT",
        "meta_epoch": "2025-12-02T05:51:07.218720",
        "meta_mean_motion": 14.33192884,
        "meta_eccentricity": 0.0091167,
        "meta_inclination": 74.0653,
        "meta_ra_of_asc_node": 292.2194,
        "meta_arg_of_pericenter": 322.5756,
        "meta_mean_anomaly": 36.9067,
        "meta_ephemeris_type": 0,
        "meta_classification_type": "U",
        "meta_norad_cat_id": 36366,
        "meta_element_set_no": 999,
        "meta_rev_at_epoch": 86138,
        "meta_bstar": 0.0027816,
        "meta_mean_motion_dot": 7.987e-05,
        "meta_mean_motion_ddot": 0,
        "tle_line1": "1 36366U 93036AYT 25336.24383355  .00007987  00000+0  27816-2 0  9993",
        "tle_line2": "2 36366  74.0653 292.2194 0091167 322.5756  36.9067 14.33192884861384"
      },
      "geometry": {
        "type": "Point",
        "coordinates": [
          -96.74837510122157,
          -55.20661312575988
        ]
      }
    },
    {
      "type": "Feature",
      "properties": {
        "norad_id": 36367,
        "name": "COSMOS 2251 DEB",
        "group": "cosmos-2251-debris",
        "lat": -52.66211429447543,
        "lon": 86.72735338623632,
        "alt_km": 922.0749857981091,
        "timestamp": "2025-12-04T19:33:59.996180+00:00",
        "meta_object_name": "COSMOS 2251 DEB",
        "meta_object_id": "1993-036AYU",
        "meta_epoch": "2025-12-01T12:28:20.175744",
        "meta_mean_motion": 13.86234419,
        "meta_eccentricity": 0.02628434,
        "meta_inclination": 74.101,
        "meta_ra_of_asc_node": 250.3439,
        "meta_arg_of_pericenter": 325.6692,
        "meta_mean_anomaly": 32.7682,
        "meta_ephemeris_type": 0,
        "meta_classification_type": "U",
        "meta_norad_cat_id": 36367,
        "meta_element_set_no": 999,
        "meta_rev_at_epoch": 57374,
        "meta_bstar": 0.0014810929,
        "meta_mean_motion_dot": 2.22e-05,
        "meta_mean_motion_ddot": 0,
        "tle_line1": "1 36367U 93036AYU 25335.51967796  .00002220  00000+0  14811-2 0  9996",
        "tle_line2": "2 36367  74.1010 250.3439 0262843 325.6692  32.7682 13.86234419573749"
      },
      "geometry": {
        "type": "Point",
        "coordinates": [
          86.72735338623632,
          -52.66211429447543
        ]
      }
    }
  ]
}